SOYUZ-MS 25             
1 59294U 24055A   24252.83233145  .00030821  00000+0  56971-3 0  9993
2 59294  51.6370 261.0039 0007636 329.3504  30.7037 15.48756929 26545
CURTIS                  
1 59507U 98067WG  24252.37394546  .00870869  36406-3  17516-2 0  9994
2 59507  51.6150 245.0146 0004798  18.9693 341.1495 15.99104297 23584
1998-067WJ              
1 59559U 98067WJ  24252.68325644  .00827225  32587-3  16691-2 0  9995
2 59559  51.6207 244.8873 0005964  60.7286 299.4319 15.99029268 22489
1998-067WL              
1 59561U 98067WL  24252.42282374  .00112801  00000+0  10576-2 0  9996
2 59561  51.6291 255.2482 0002098  27.2169 332.8937 15.66340943 22297
BURSTCUBE               
1 59562U 98067WM  24252.69021499  .00844284  32889-3  19386-2 0  9994
2 59562  51.6211 244.9453 0006738  54.9956 305.1684 15.96702601 22466
SNOOPI                  
1 59563U 98067WN  24252.91444578  .00503164  00000+0  17894-2 0  9994
2 59563  51.6254 246.4913 0006216  49.2430 310.9113 15.87081003 22464
SHENZHOU-18 (SZ-18)     
1 59591U 24078A   24252.54631230  .00064048  00000+0  66863-3 0  9992
2 59591  41.4687 295.0062 0001308  60.2319 299.8651 15.63568957 21073
SZ-17 MODULE            
1 59624U 23164C   24252.58293089  .00096276  00000+0  62120-3 0  9994
2 59624  41.4745 289.0153 0008693 123.6248 236.5426 15.74999325 20647
PROGRESS-MS 27          
1 59913U 24103A   24252.83233145  .00030821  00000+0  56971-3 0  9995
2 59913  51.6370 261.0039 0007636 329.3504  30.7037 15.48756929 15945
CYGNUS NG-21            
1 60378U 24139A   24252.83233145  .00030821  00000+0  56971-3 0  9991
2 60378  51.6370 261.0039 0007636 329.3504  30.7037 15.48756929  5480
PROGRESS-MS 28          
1 60450U 24145A   24252.50970274  .00030141  00000+0  55776-3 0  9991
2 60450  51.6368 262.5999 0007677 328.3825  31.6702 15.48736661471475
BINAR-4                 
1 60952U 98067WS  24252.88322809  .00175023  00000+0  27215-2 0  9993
2 60952  51.6371 260.5949 0012495 342.7763  17.2802 15.52720076  1630
COSMOGIRLSAT            
1 60953U 98067WT  24252.88454797  .00125837  00000+0  20156-2 0  9991
2 60953  51.6377 260.6041 0013606 339.3938  20.6501 15.52079609  1635
SAKURA                  
1 60954U 98067WU  24252.88369434  .00141388  00000+0  22375-2 0  9999
2 60954  51.6375 260.5983 0013542 340.6154  19.4320 15.52351072  1634
1998-067WV              
1 60955U 98067WV  24252.87798628  .00269515  00000+0  39166-2 0  9999
2 60955  51.6370 260.5598 0012269 343.7599  16.2997 15.54237509  1639
BINAR-2                 
1 60956U 98067WW  24252.88249463  .00154655  00000+0  24076-2 0  9991
2 60956  51.6362 260.5900 0012679 342.4411  17.6139 15.52765364  1627
BINAR-3                 
1 60957U 98067WX  24252.88214429  .00191471  00000+0  29372-2 0  9997
2 60957  51.6371 260.5871 0012530 342.8908  17.1658 15.53031406  3612
1998-067WY              
1 60958U 98067WY  24252.88490875  .00117846  00000+0  18979-2 0  9994
2 60958  51.6378 260.6066 0013570 339.0536  20.9896 15.51963436  1627
